$$SOE
2460728.500000000, A.D. 2025-Feb-22 00:00:00.0000, 3.003750097369219E+08, -3.797835023148881E+08, 1.874161543866913E+07,
2460735.500000000, A.D. 2025-Mar-01 00:00:00.0000, 3.081514228420837E+08, -3.732139765931252E+08, 1.760671785973383E+07,
2460742.500000000, A.D. 2025-Mar-08 00:00:00.0000, 3.157961579751854E+08, -3.664850243069425E+08, 1.646429555407867E+07,
2460749.500000000, A.D. 2025-Mar-15 00:00:00.0000, 3.233057395792155E+08, -3.595992717057243E+08, 1.531482530972072E+07,
2460756.500000000, A.D. 2025-Mar-22 00:00:00.0000, 3.306767465263134E+08, -3.525594280598862E+08, 1.415878910300757E+07,
2460763.500000000, A.D. 2025-Mar-29 00:00:00.0000, 3.379058136983116E+08, -3.453682862901887E+08, 1.299667376218693E+07,
2460770.500000000, A.D. 2025-Apr-05 00:00:00.0000, 3.449896352329212E+08, -3.380287226279133E+08, 1.182897054185130E+07,
2460777.500000000, A.D. 2025-Apr-12 00:00:00.0000, 3.519249675066478E+08, -3.305436952026670E+08, 1.065617479348372E+07,
2460784.500000000, A.D. 2025-Apr-19 00:00:00.0000, 3.587086316639187E+08, -3.229162424399613E+08, 9.478785677313298E+06,
2460791.500000000, A.D. 2025-Apr-26 00:00:00.0000, 3.653375159606977E+08, -3.151494814723322E+08, 8.297305874042511E+06,
2460798.500000000, A.D. 2025-May-03 00:00:00.0000, 3.718085780329419E+08, -3.072466065456920E+08, 7.112241287711367E+06,
2460805.500000000, A.D. 2025-May-10 00:00:00.0000, 3.781188471151579E+08, -2.992108874133604E+08, 5.924100737954825E+06,
2460812.500000000, A.D. 2025-May-17 00:00:00.0000, 3.842654262422830E+08, -2.910456677600477E+08, 4.733395635120541E+06,
2460819.500000000, A.D. 2025-May-24 00:00:00.0000, 3.902454946052539E+08, -2.827543637113214E+08, 3.540639618053481E+06,
2460826.500000000, A.D. 2025-May-31 00:00:00.0000, 3.960563104751173E+08, -2.743404621186608E+08, 2.346348141966864E+06,
2460833.500000000, A.D. 2025-Jun-07 00:00:00.0000, 4.016952142927804E+08, -2.658075174175660E+08, 1.151038152156979E+06,
2460840.500000000, A.D. 2025-Jun-14 00:00:00.0000, 4.071596295572383E+08, -2.571591477292289E+08, -4.477199353988469E+04,
2460847.500000000, A.D. 2025-Jun-21 00:00:00.0000, 4.124470627242001E+08, -2.483990334798943E+08, -1.240562732217342E+06,
2460854.500000000, A.D. 2025-Jun-28 00:00:00.0000, 4.175551052381899E+08, -2.395309167741849E+08, -2.435813775766909E+06,
2460861.500000000, A.D. 2025-Jul-05 00:00:00.0000, 4.224814361778377E+08, -2.305585993668204E+08, -3.630004547383666E+06,
2460868.500000000, A.D. 2025-Jul-12 00:00:00.0000, 4.272238243209347E+08, -2.214859400394771E+08, -4.822614530773535E+06,
2460875.500000000, A.D. 2025-Jul-19 00:00:00.0000, 4.317801298173344E+08, -2.123168519597899E+08, -6.013123595875785E+06,
2460882.500000000, A.D. 2025-Jul-26 00:00:00.0000, 4.361483056788462E+08, -2.030553000819555E+08, -7.201012324359581E+06,
2460889.500000000, A.D. 2025-Aug-02 00:00:00.0000, 4.403263991507355E+08, -1.937052985711377E+08, -8.385762338494688E+06,
2460896.500000000, A.D. 2025-Aug-09 00:00:00.0000, 4.443125529868684E+08, -1.842709082706369E+08, -9.566856636133775E+06,
2460903.500000000, A.D. 2025-Aug-16 00:00:00.0000, 4.481050067031189E+08, -1.747562342792919E+08, -1.074377994346941E+07,
2460910.500000000, A.D. 2025-Aug-23 00:00:00.0000, 4.517020980984589E+08, -1.651654236261192E+08, -1.191601911049908E+07,
2460917.500000000, A.D. 2025-Aug-30 00:00:00.0000, 4.551022653697436E+08, -1.555026623305956E+08, -1.308306352034726E+07,
2460924.500000000, A.D. 2025-Sep-06 00:00:00.0000, 4.583040484010304E+08, -1.457721708510835E+08, -1.424440529980748E+07,
2460931.500000000, A.D. 2025-Sep-13 00:00:00.0000, 4.613060875559107E+08, -1.359782004084914E+08, -1.539953938001836E+07,
2460938.500000000, A.D. 2025-Sep-20 00:00:00.0000, 4.641071232434468E+08, -1.261250318331565E+08, -1.654796384125842E+07,
2460945.500000000, A.D. 2025-Sep-27 00:00:00.0000, 4.667059973141347E+08, -1.162169738255844E+08, -1.768918038400170E+07,
2460952.500000000, A.D. 2025-Oct-04 00:00:00.0000, 4.691016542689745E+08, -1.062583600945275E+08, -1.882269469653451E+07,
2460959.500000000, A.D. 2025-Oct-11 00:00:00.0000, 4.712931419083215E+08, -9.625354631888768E+07, -1.994801676139211E+07,
2460966.500000000, A.D. 2025-Oct-18 00:00:00.0000, 4.732796117044756E+08, -8.620690721158694E+07, -2.106466114864518E+07,
2460973.500000000, A.D. 2025-Oct-25 00:00:00.0000, 4.750603190378039E+08, -7.612283367816283E+07, -2.217214730761905E+07,
2460980.500000000, A.D. 2025-Nov-01 00:00:00.0000, 4.766346233361290E+08, -6.600573005833732E+07, -2.326999985915774E+07,
2460987.500000000, A.D. 2025-Nov-08 00:00:00.0000, 4.780019881522838E+08, -5.586001148573181E+07, -2.435774889399879E+07,
2460994.500000000, A.D. 2025-Nov-15 00:00:00.0000, 4.791619813278318E+08, -4.569010142814521E+07, -2.543493029550042E+07,
2461001.500000000, A.D. 2025-Nov-22 00:00:00.0000, 4.801142756450782E+08, -3.550042919188464E+07, -2.650108610556381E+07,
2461008.500000000, A.D. 2025-Nov-29 00:00:00.0000, 4.808586498137308E+08, -2.529542625761300E+07, -2.755576482673608E+07,
2461015.500000000, A.D. 2025-Dec-06 00:00:00.0000, 4.813949875168233E+08, -1.507952158610025E+07, -2.859852146251795E+07,
2461022.500000000, A.D. 2025-Dec-13 00:00:00.0000, 4.817232749521084E+08, -4.857139268412044E+06, -2.962891761106435E+07,
2461029.500000000, A.D. 2025-Dec-20 00:00:00.0000, 4.818436003621247E+08, 5.367302498640658E+06, -3.064652184897001E+07,
2461036.500000000, A.D. 2025-Dec-27 00:00:00.0000, 4.817561544793199E+08, 1.558939370062377E+07, -3.165091009461794E+07,
2461043.500000000, A.D. 2026-Jan-03 00:00:00.0000, 4.814612304286736E+08, 2.580473543928409E+07, -3.264166586728650E+07,
2461050.500000000, A.D. 2026-Jan-10 00:00:00.0000, 4.809592231995987E+08, 3.600894283068557E+07, -3.361838050730987E+07,
2461057.500000000, A.D. 2026-Jan-17 00:00:00.0000, 4.802506289217284E+08, 4.619764777383983E+07, -3.458065338584965E+07,
2461064.500000000, A.D. 2026-Jan-24 00:00:00.0000, 4.793360440247216E+08, 5.636650161045436E+07, -3.552809210931722E+07,
2461071.500000000, A.D. 2026-Jan-31 00:00:00.0000, 4.782161643080240E+08, 6.651117766650046E+07, -3.646031272097898E+07,
2461078.500000000, A.D. 2026-Feb-07 00:00:00.0000, 4.768917839849215E+08, 7.662737361629781E+07, -3.737693990989908E+07,
2461085.500000000, A.D. 2026-Feb-14 00:00:00.0000, 4.753637949567427E+08, 8.671081365138085E+07, -3.827760725157230E+07,
2461092.500000000, A.D. 2026-Feb-21 00:00:00.0000, 4.736331867064250E+08, 9.675725102826349E+07, -3.916195746845453E+07,
2461099.500000000, A.D. 2026-Feb-28 00:00:00.0000, 4.717010457273026E+08, 1.067624721465629E+08, -4.002964251623540E+07,
2461106.500000000, A.D. 2026-Mar-07 00:00:00.0000, 4.695685524312574E+08, 1.167223002062400E+08, -4.088032346612257E+07,
2461113.500000000, A.D. 2026-Mar-14 00:00:00.0000, 4.672369783149480E+08, 1.266325961084601E+08, -4.171367062829325E+07,
2461120.500000000, A.D. 2026-Mar-21 00:00:00.0000, 4.647076851676359E+08, 1.364892594957929E+08, -4.252936384289275E+07,
2461127.500000000, A.D. 2026-Mar-28 00:00:00.0000, 4.619821243129090E+08, 1.462882309599966E+08, -4.332709266987479E+07,
2461134.500000000, A.D. 2026-Apr-04 00:00:00.0000, 4.590618352844642E+08, 1.560254944513848E+08, -4.410655650112490E+07,
2461141.500000000, A.D. 2026-Apr-11 00:00:00.0000, 4.559484442144194E+08, 1.656970795286913E+08, -4.486746464943129E+07,
2461148.500000000, A.D. 2026-Apr-18 00:00:00.0000, 4.526436620977268E+08, 1.752990634410285E+08, -4.560953642947605E+07,
2461155.500000000, A.D. 2026-Apr-25 00:00:00.0000, 4.491492829822864E+08, 1.848275730548269E+08, -4.633250123380406E+07,
2461162.500000000, A.D. 2026-May-02 00:00:00.0000, 4.454671821188669E+08, 1.942787865945719E+08, -4.703609860892343E+07,
2461169.500000000, A.D. 2026-May-09 00:00:00.0000, 4.415993141988288E+08, 2.036489351298961E+08, -4.772007834832850E+07,
2461176.500000000, A.D. 2026-May-16 00:00:00.0000, 4.375477120610074E+08, 2.129343039460904E+08, -4.838420062583730E+07,
2461183.500000000, A.D. 2026-May-23 00:00:00.0000, 4.333144859219303E+08, 2.221312348187665E+08, -4.902823609039732E+07,
2461190.500000000, A.D. 2026-May-30 00:00:00.0000, 4.289018210522782E+08, 2.312361295119135E+08, -4.965196570539597E+07,
2461197.500000000, A.D. 2026-Jun-06 00:00:00.0000, 4.243119735862008E+08, 2.402454512270978E+08, -5.025518057116191E+07,
2461204.500000000, A.D. 2026-Jun-13 00:00:00.0000, 4.195472681341448E+08, 2.491557242021671E+08, -5.083768205125407E+07,
2461211.500000000, A.D. 2026-Jun-20 00:00:00.0000, 4.146100967002820E+08, 2.579635343843296E+08, -5.139928191773349E+07,
2461218.500000000, A.D. 2026-Jun-27 00:00:00.0000, 4.095029172081931E+08, 2.666655308377478E+08, -5.193980238767625E+07,
2461225.500000000, A.D. 2026-Jul-04 00:00:00.0000, 4.042282516374692E+08, 2.752584271111578E+08, -5.245907611466952E+07,
2461232.500000000, A.D. 2026-Jul-11 00:00:00.0000, 3.987886840280451E+08, 2.837390024339838E+08, -5.295694616983511E+07,
2461239.500000000, A.D. 2026-Jul-18 00:00:00.0000, 3.931868584477506E+08, 2.921041027671189E+08, -5.343326601924884E+07,
2461246.500000000, A.D. 2026-Jul-25 00:00:00.0000, 3.874254769501975E+08, 3.003506417116616E+08, -5.388789950021221E+07,
2461253.500000000, A.D. 2026-Aug-01 00:00:00.0000, 3.815072975737417E+08, 3.084756012282668E+08, -5.432072080514067E+07,
2461260.500000000, A.D. 2026-Aug-08 00:00:00.0000, 3.754351325992005E+08, 3.164760321322393E+08, -5.473161449614540E+07,
2461267.500000000, A.D. 2026-Aug-15 00:00:00.0000, 3.692118474843258E+08, 3.243490548155323E+08, -5.512047555203003E+07,
2461274.500000000, A.D. 2026-Aug-22 00:00:00.0000, 3.628403597159291E+08, 3.320918614168112E+08, -5.548720927829035E+07,
2461281.500000000, A.D. 2026-Aug-29 00:00:00.0000, 3.563236352911190E+08, 3.397017180678588E+08, -5.583173098222855E+07,
2461288.500000000, A.D. 2026-Sep-05 00:00:00.0000, 3.496646849641274E+08, 3.471759643513691E+08, -5.615396584371231E+07,
2461295.500000000, A.D. 2026-Sep-12 00:00:00.0000, 3.428665627173833E+08, 3.545120124670755E+08, -5.645384900340201E+07,
$$EOE